GOES 18
1 51850U 22021A   26001.15109635  .00000110  00000-0  00000+0 0  9996
2 51850   0.0068 259.7377 0000645  47.4329  71.0181  1.00270826  4917
GOES 18
1 51850U 22021A   26001.22242346  .00000109  00000-0  00000-0 0  9990
2 51850   0.0070 261.4472 0000650  45.6692  96.8202  1.00270859  4910
GOES 18
1 51850U 22021A   26001.60322567  .00000108  00000-0  00000-0 0  9995
2 51850   0.0197 198.0970 0000675 110.0824 233.2205  1.00271055  4929
GOES 18
1 51850U 22021A   26001.72172701  .00000107  00000-0  00000+0 0  9999
2 51850   0.0027 113.6575 0000674 194.9871 275.5322  1.00271109  4926
GOES 18
1 51850U 22021A   26001.79296747  .00000107  00000-0  00000+0 0  9993
2 51850   0.0202 193.5188 0000673 115.3057 301.0691  1.00271122  4929
GOES 18
1 51850U 22021A   26001.93579503  .00000106  00000-0  00000-0 0  9993
2 51850   0.0199 192.9715 0000690 116.4238 352.0565  1.00271194  4920
