GOES 18
1 51850U 22021A   25359.08919137  .00000118  00000-0  00000-0 0  9998
2 51850   0.0027 276.3002 0000406  41.3938  31.2662  1.00271254  4846
GOES 18
1 51850U 22021A   25359.08919137  .00000118  00000-0  00000+0 0  9997
2 51850   0.0027 276.3002 0000406  41.3938  31.2662  1.00271254  4846
GOES 18
1 51850U 22021A   25359.51572644  .00000118  00000-0  00000-0 0  9994
2 51850   0.0208 187.5014 0000436 127.4929 187.9384  1.00271349  4858
GOES 18
1 51850U 22021A   25359.51572644  .00000118  00000-0  00000+0 0  9993
2 51850   0.0208 187.5014 0000436 127.4929 187.9384  1.00271349  4858
GOES 18
1 51850U 22021A   25360.18191838  .00000118  00000-0  00000+0 0  9990
2 51850   0.0096 172.4239 0000455 139.8311  71.1627  1.00271511  4853
GOES 18
1 51850U 22021A   25360.23672384  .00000119  00000-0  00000-0 0  9998
2 51850   0.0396 175.3212 0000470 136.2050  91.6758  1.00271493  4858
GOES 18
1 51850U 22021A   25360.55910885  .00000119  00000-0  00000-0 0  9994
2 51850   0.0396 207.2899 0000267 107.2467 205.0399  1.00266539  4866
GOES 18
1 51850U 22021A   25360.72983090  .00000119  00000-0  00000+0 0  9990
2 51850   0.0378 210.1150 0000398  88.3250 282.7644  1.00268759  4864
GOES 18
1 51850U 22021A   25360.94397875  .00000119  00000-0  00000-0 0  9995
2 51850   0.0416 197.7486 0000529 103.7151 357.0458  1.00270414  4867
GOES 18
1 51850U 22021A   25361.04975551  .00000119  00000-0  00000+0 0  9999
2 51850   0.0427 194.7343 0000538 115.5056  26.4539  1.00271498  4863
GOES 18
1 51850U 22021A   25361.22929288  .00000119  00000-0  00000-0 0  9996
2 51850   0.0401 201.2118 0000545 109.1379  91.1546  1.00271611  4868
GOES 18
1 51850U 22021A   25361.46711215  .00000119  00000-0  00000+0 0  9990
2 51850   0.0418 194.3227 0000561 114.6475 178.3839  1.00271693  4879
GOES 18
1 51850U 22021A   25361.65725566  .00000119  00000-0  00000+0 0  9995
2 51850   0.0142 246.7231 0000568  61.2103 248.0601  1.00271818  4873
GOES 18
1 51850U 22021A   25361.65725567  .00000119  00000-0  00000-0 0  9997
2 51850   0.0142 246.7231 0000568  61.2103 248.0601  1.00271818  4873
GOES 18
1 51850U 22021A   25362.17770978  .00000119  00000-0  00000+0 0  9990
2 51850   0.0118 250.9014 0000574  57.2600  75.7087  1.00271968  4875
GOES 18
1 51850U 22021A   25362.27604789  .00000119  00000-0  00000-0 0  9998
2 51850   0.0115 248.8179 0000577  58.9764 111.5745  1.00271978  4873
GOES 18
1 51850U 22021A   25362.44186896  .00000119  00000-0  00000+0 0  9990
2 51850   0.0107 250.7031 0000589  56.9365 171.5885  1.00272016  4887
GOES 18
1 51850U 22021A   25362.58452323  .00000119  00000-0  00000-0 0  9997
2 51850   0.0098 251.9946 0000599  55.7626 222.9672  1.00272062  4888
GOES 18
1 51850U 22021A   25362.72726419  .00000119  00000-0  00000+0 0  9992
2 51850   0.0075 250.5681 0000618  57.5899 274.0938  1.00272077  4887
GOES 18
1 51850U 22021A   25362.72726419  .00000119  00000-0  00000-0 0  9993
2 51850   0.0075 250.5681 0000618  57.5899 274.0938  1.00272077  4887
GOES 18
1 51850U 22021A   25362.94124556  .00000119  00000-0  00000-0 0  9991
2 51850   0.0019 253.7396 0000621  50.7618 354.9953  1.00272079  4888
GOES 18
1 51850U 22021A   25363.44052653  .00000118  00000-0  00000+0 0  9993
2 51850   0.0180 195.4458 0000557 110.9544 173.3232  1.00270100  4890
GOES 18
1 51850U 22021A   25363.44052653  .00000118  00000-0  00000-0 0  9994
2 51850   0.0180 195.4458 0000557 110.9544 173.3232  1.00270100  4890
GOES 18
1 51850U 22021A   25363.72583506  .00000118  00000-0  00000+0 0  9990
2 51850   0.0066  86.8292 0000548 221.3334 274.5516  1.00270276  4899
GOES 18
1 51850U 22021A   25364.08251646  .00000117  00000-0  00000+0 0  9996
2 51850   0.0141 123.6364 0000562 182.2680  45.5651  1.00270418  4892
GOES 18
1 51850U 22021A   25364.22354358  .00000117  00000-0  00000-0 0  9997
2 51850   0.0216 137.8583 0000569 167.3972  97.1222  1.00270453  4896
GOES 18
1 51850U 22021A   25364.46978094  .00000118  00000-0  00000-0 0  9993
2 51850   0.0385 196.5308 0001297 355.5326 299.2138  1.00252066  4906
GOES 18
1 51850U 22021A   25364.72445372  .00000115  00000-0  00000+0 0  9996
2 51850   0.0147 253.6500 0000501  46.0173 283.5285  1.00268490  4907
GOES 18
1 51850U 22021A   25364.72445372  .00000115  00000-0  00000-0 0  9997
2 51850   0.0147 253.6500 0000501  46.0173 283.5285  1.00268490  4907
GOES 18
1 51850U 22021A   25365.08114791  .00000114  00000-0  00000+0 0  9993
2 51850   0.0121 257.2687 0000597  46.5508  48.1367  1.00270094  4906
GOES 18
1 51850U 22021A   25365.23917368  .00000113  00000-0  00000-0 0  9991
2 51850   0.0112 257.6409 0000609  47.9525 103.4074  1.00270377  4904
GOES 18
1 51850U 22021A   25365.51765309  .00000112  00000-0  00000+0 0  9996
2 51850   0.0080 267.6130 0000635  38.6234 203.2906  1.00270593  4917
GOES 18
1 51850U 22021A   25365.58043774  .00000112  00000-0  00000-0 0  9999
2 51850   0.0098 259.5265 0000614  47.1649 225.4999  1.00270629  4915
GOES 18
1 51850U 22021A   25365.79432399  .00000111  00000-0  00000-0 0  9996
2 51850   0.0093 259.2033 0000625  48.4647 301.7322  1.00270695  4915
GOES 18
1 51850U 22021A   26001.15109635  .00000110  00000-0  00000+0 0  9996
2 51850   0.0068 259.7377 0000645  47.4329  71.0181  1.00270826  4917
GOES 18
1 51850U 22021A   26001.22242346  .00000109  00000-0  00000-0 0  9990
2 51850   0.0070 261.4472 0000650  45.6692  96.8202  1.00270859  4910
GOES 18
1 51850U 22021A   26001.60322567  .00000108  00000-0  00000-0 0  9995
2 51850   0.0197 198.0970 0000675 110.0824 233.2205  1.00271055  4929
GOES 18
1 51850U 22021A   26001.72172701  .00000107  00000-0  00000+0 0  9999
2 51850   0.0027 113.6575 0000674 194.9871 275.5322  1.00271109  4926
GOES 18
1 51850U 22021A   26001.79296747  .00000107  00000-0  00000+0 0  9993
2 51850   0.0202 193.5188 0000673 115.3057 301.0691  1.00271122  4929
GOES 18
1 51850U 22021A   26001.93579503  .00000106  00000-0  00000-0 0  9993
2 51850   0.0199 192.9715 0000690 116.4238 352.0565  1.00271194  4920
GOES 18
1 51850U 22021A   26002.06919751  .00000106  00000-0  00000+0 0  9990
2 51850   0.0117  86.6117 0000708 224.4882  38.5073  1.00271326  4927
GOES 18
1 51850U 22021A   26002.23666615  .00000105  00000-0  00000-0 0  9997
2 51850   0.0111  91.4618 0000711 218.8309  99.7685  1.00271368  4920
GOES 18
1 51850U 22021A   26002.61919662  .00000103  00000-0  00000-0 0  9990
2 51850   0.0018 264.1634 0000699  48.8072 235.1788  1.00271458  4937
GOES 18
1 51850U 22021A   26002.72039488  .00000103  00000-0  00000+0 0  9990
2 51850   0.0039 125.8856 0000694 187.0681 271.7268  1.00271516  4930
GOES 18
1 51850U 22021A   26002.93442712  .00000102  00000-0  00000-0 0  9991
2 51850   0.0075 108.4966 0000716 206.3017 347.1443  1.00271658  4932
GOES 18
1 51850U 22021A   26003.05461672  .00000101  00000-0  00000+0 0  9999
2 51850   0.0095 123.9511 0000718 190.7240  30.6542  1.00271713  4934
GOES 18
1 51850U 22021A   26003.23671515  .00000101  00000-0  00000-0 0  9999
2 51850   0.0072 116.4101 0000714 197.2508  97.4038  1.00271764  4933
GOES 18
1 51850U 22021A   26003.44338461  .00000100  00000-0  00000+0 0  9990
2 51850   0.0090 104.8785 0000724 210.7087 170.0825  1.00271872  4949
GOES 18
1 51850U 22021A   26003.44338461  .00000100  00000-0  00000-0 0  9991
2 51850   0.0090 104.8785 0000724 210.7087 170.0825  1.00271872  4949
GOES 18
1 51850U 22021A   26003.93283326  .00000098  00000-0  00000-0 0  9990
2 51850   0.0084 125.0723 0000720 191.4471 345.8355  1.00272322  4948
GOES 18
1 51850U 22021A   26004.07568962  .00000098  00000-0  00000+0 0  9997
2 51850   0.0112  74.1961 0000725 243.0076  36.7205  1.00272369  4949
GOES 18
1 51850U 22021A   26004.23872853  .00000098  00000-0  00000-0 0  9993
2 51850   0.0132  76.8568 0000723 239.6224  96.3002  1.00272431  4944
GOES 18
1 51850U 22021A   26004.43232524  .00000097  00000-0  00000+0 0  9998
2 51850   0.0138  84.3389 0000720 231.9304 166.3961  1.00272455  4955
GOES 18
1 51850U 22021A   26004.50365238  .00000097  00000-0  00000-0 0  9996
2 51850   0.0139  84.7095 0000718 231.6507 192.0535  1.00272479  4952
GOES 18
1 51850U 22021A   26004.78896087  .00000097  00000-0  00000+0 0  9996
2 51850   0.0143 120.9496 0000874 202.5022 287.9492  1.00270467  4958
GOES 18
1 51850U 22021A   26004.93154714  .00000097  00000-0  00000-0 0  9998
2 51850   0.0161 124.9597 0000858 199.7816 338.1302  1.00270284  4950
GOES 18
1 51850U 22021A   26005.07428801  .00000097  00000-0  00000+0 0  9994
2 51850   0.0163 125.0127 0000873 200.1170  29.2686  1.00270445  4952
GOES 18
1 51850U 22021A   26005.30094514  .00000096  00000-0  00000-0 0  9990
2 51850   0.0187 128.1754 0000885 198.1640 109.8781  1.00270572  4951
GOES 18
1 51850U 22021A   26005.48488363  .00000096  00000-0  00000+0 0  9997
2 51850   0.0196 129.8012 0000884 197.1460 175.6687  1.00270680  4961
GOES 18
1 51850U 22021A   26005.53378314  .00000096  00000-0  00000-0 0  9998
2 51850   0.0196 130.0188 0000880 196.7417 193.5073  1.00270710  4964
GOES 18
1 51850U 22021A   26006.14072510  .00000097  00000-0  00000+0 0  9995
2 51850   0.0242 136.7898 0000869 191.2732  51.3005  1.00271049  4966
GOES 18
1 51850U 22021A   26006.14072512  .00000097  00000-0  00000-0 0  9998
2 51850   0.0242 136.7898 0000869 191.2732  51.3005  1.00271049  4966
GOES 18
1 51850U 22021A   26006.43182644  .00000097  00000-0  00000+0 0  9997
2 51850   0.0253 137.8361 0000883 191.6084 155.0021  1.00271262  4973
GOES 18
1 51850U 22021A   26006.43182644  .00000097  00000-0  00000-0 0  9998
2 51850   0.0253 137.8361 0000883 191.6084 155.0022  1.00271262  4974
GOES 18
1 51850U 22021A   26006.92878763  .00000098  00000-0  00000-0 0  9997
2 51850   0.0095 109.8176 0000890 224.0659 329.9583  1.00271455  4976
GOES 18
1 51850U 22021A   26007.14291876  .00000098  00000-0  00000+0 0  9995
2 51850   0.0132 209.8337 0000903 124.3481  46.9584  1.00271660  4973
GOES 18
1 51850U 22021A   26007.21424589  .00000098  00000-0  00000-0 0  9993
2 51850   0.0159 204.2487 0000906 130.3454  72.2942  1.00271695  4975
GOES 18
1 51850U 22021A   26007.42822726  .00000099  00000-0  00000+0 0  9991
2 51850   0.0172 146.9340 0000919 189.5222 147.6761  1.00271799  4985
GOES 18
1 51850U 22021A   26007.71353573  .00000100  00000-0  00000+0 0  9995
2 51850   0.0078 126.6686 0000896 209.3680 251.0887  1.00271947  4985
GOES 18
1 51850U 22021A   26007.71353573  .00000100  00000-0  00000-0 0  9996
2 51850   0.0078 126.6686 0000896 209.3680 251.0887  1.00271947  4985
GOES 18
1 51850U 22021A   26008.15878168  .00000101  00000-0  00000+0 0  9997
2 51850   0.0104  91.2687 0000895 246.8044  49.7798  1.00272164  4987
GOES 18
1 51850U 22021A   26008.28336873  .00000102  00000-0  00000-0 0  9995
2 51850   0.0312 177.9457 0000902 161.2211  93.6603  1.00272252  4981
GOES 18
1 51850U 22021A   26008.48794778  .00000102  00000-0  00000+0 0  9998
2 51850   0.0318 180.4981 0000901 159.3327 166.8471  1.00272341  4999
GOES 18
1 51850U 22021A   26008.53447396  .00000102  00000-0  00000-0 0  9996
2 51850   0.0306 177.1384 0000900 162.8754 183.4596  1.00272368  4990
GOES 18
1 51850U 22021A   26008.78352068  .00000103  00000-0  00000+0 0  9994
2 51850   0.0310 176.5293 0000893 163.9636 272.8836  1.00272496  4991
GOES 18
1 51850U 22021A   26009.20486970  .00000105  00000-0  00000+0 0  9994
2 51850   0.0312 175.5056 0000895 167.1187  62.8542  1.00272714  4992
GOES 18
1 51850U 22021A   26009.20486971  .00000105  00000-0  00000-0 0  9996
2 51850   0.0312 175.5056 0000895 167.1187  62.8542  1.00272714  4992
GOES 18
1 51850U 22021A   26009.55277434  .00000106  00000-0  00000-0 0  9997
2 51850   0.0205 259.1577 0001075  99.1553 172.7530  1.00274533  5004
